#dP2022 12 19 12  0  0.00000000      96 __u+U ITR00 EXT  IAC
## 2241 129600.00000000   900.00000000 59932 0.5000000000000
+  118   C06C07C08C09C10C11C12C13C14C16C19C20C21C22C23C24C25
+        C26C27C28C29C30C32C33C34C35C36C37C38C39C40C41C42C43
+        C44C45C46E01E02E03E04E05E07E08E09E10E11E12E13E14E15
+        E18E19E21E24E25E26E27E30E31E33E34E36G01G02G03G04G05
+        G06G07G08G09G10G11G12G13G14G15G16G17G18G19G20G21G22
+        G23G24G25G26G27G29G30G31G32J02J03J04R01R02R03R04R05
+        R07R08R09R11R12R13R14R15R17R18R19R20R21R22R24R25  0
++         0  0  0  0  0  0  0  0  0  0  0  0  0  0  0  0  0
++         0  0  0  0  0  0  0  0  0  0  0  0  0  0  0  0  0
++         0  0  0  0  0  0  0  0  0  0  0  0  0  0  0  0  0
++         0  0  0  0  0  0  0  0  0  0  0  0  0  0  0  0  0
++         0  0  0  0  0  0  0  0  0  0  0  0  0  0  0  0  0
++         0  0  0  0  0  0  0  0  0  0  0  0  0  0  0  0  0
++         0  0  0  0  0  0  0  0  0  0  0  0  0  0  0  0  0
%c M  cc GPS ccc cccc cccc cccc cccc ccccc ccccc ccccc ccccc
%c cc cc ccc ccc cccc cccc cccc cccc ccccc ccccc ccccc ccccc
%f  0.0000000  0.000000000  0.00000000000  0.000000000000000
%f  0.0000000  0.000000000  0.00000000000  0.000000000000000
%i    0    0    0    0      0      0      0      0         0
%i    0    0    0    0      0      0      0      0         0
/* IAC                                ULTRA-RAPID PREDICTION
/* S/V CLOCKS ARE ALIGNED TO GNSS TIME                      
/* G:C1WC2W R:C1PC2P E:C1XC5X C:C2IC6I J:C1CC2S             
/* PCV:IGS20_2239 OL/AL:FES2004  NONE     YN ORB:CoN CLK:CoN
*  2022 12 20  1 15  0.00000000
PC06   -920.011425  36759.601445  20849.688132    215.349991
PC07 -10420.185448  26292.600465 -31264.538578    136.733706
PC08 -17416.544275  36396.249315  11937.198610    523.907687
PC09   3468.980850  39781.812176  14699.696854   -778.820530
PC10  -3604.170821  26853.392606 -32025.051537     48.351426
PC11  12408.365550  -9231.783108  23303.363459   -226.058215
PC12  19300.536282   9577.687713  17773.368622    354.644978
PC13 -11268.685942  36510.848788  17652.955088    162.492133
PC14  22793.343918  -9583.842144 -12876.039091    282.781405
PC16  -4135.827246  34191.162622  24698.669169     98.428944
PC19 -14509.798530  13770.953902  19482.354780   -902.345130
PC20 -26845.398301   4880.609095   5913.706233    799.457074
PC21  23851.827870   7683.068477  12277.789185   -924.596465
PC22   6764.888654  15143.212867  22435.163338   -730.759694
PC23   1060.632084 -23839.622272  14473.989320   -871.202705
PC24  19495.793622  -8908.002310 -17903.784624   -651.961119
PC25  13575.056144 -24357.227382  -1413.659900     42.227831
PC26  13791.045737   8750.040532 -22642.355288    -52.305148
PC27 -19131.331043 -17118.292937 -10941.249730     68.851562
PC28 -10514.991770 -25214.748930   5708.237830     49.237635
PC29  -4653.199130  18638.846226 -20243.098985     56.071311
PC30 -17555.186484    751.485574 -21676.922693      1.237051
PC32 -23872.976901  -7535.112891 -12322.704003   -676.986489
PC33  14524.505130 -13838.425099 -19394.062884   -891.440023
PC34  17068.406253  -1970.796757  21986.537740     64.939967
PC35  10208.324697  24962.050043  -7244.536703    141.015109
PC36 -14492.500727  23752.495195   2049.848545   -755.132311
PC37 -12714.256853 -10501.489333  22521.820508   -875.552720
PC38 -20818.980369  36304.162188   4360.275591     46.164213
PC39  -5377.532148  31580.878575  27535.717325     -1.102585
PC40 -17130.924433  19605.783872 -33222.306897    -10.574954
PC41  -6164.293836 -15238.318966 -22501.915768   -399.326356
PC42  27190.587097  -4119.103787  -4656.957863   -884.685630
PC43   5446.975254 -18100.057286  20517.252649     31.012860
PC44  19760.839086  16580.022581  10680.497615    150.548581
PC45   -798.179246  23611.906612 -14834.387702    -36.873205
PC46 -19476.389636  10719.969027  16833.252432    -20.719545
PE01   6593.240521 -20210.281918  20603.253283   -580.201971
PE02  -6232.306925  20134.591575 -20775.919672      9.605240
PE03   6026.396853  20141.492383  20825.160371   -631.517599
PE04 -22769.076095 -17810.851974  -6354.238105    -17.843851
PE05 -14659.689418  10679.611075  23387.465037   -113.403621
PE07  26496.673031   4891.811678 -12252.464754     -8.531749
PE08  22799.544020  17742.516037   6427.333017     -5.538020
PE09 -26527.195896  -5068.034490  12120.598340   -770.089423
PE10 -14893.557764 -11733.435149 -22733.175366   -499.032732
PE11 -16094.072461    671.642224 -24835.948080     79.754197
PE12 -11523.372922 -21132.421994 -17214.961351   -342.570463
PE13  16036.211970    408.397293  24886.009875    430.308004
PE14  18058.917443  -2023.585107  14868.374345     89.464752
PE15  11383.983441  21375.253981  17032.944507    699.793456
PE18 -24706.894157   2938.244225 -20838.968005   -608.117601
PE19  -3178.945090 -19418.032273 -22111.500615  -3700.272673
PE21  22159.563651 -18459.675975   6688.362531   -501.340970
PE24 -26151.261120   5168.122516  12821.171265  -1011.267322
PE25 -22334.980004  18329.326180  -6393.238763   -595.313156
PE26  11018.420548 -21264.042443  17409.064714  -1876.339701
PE27  26350.460879  -6034.242223 -12080.263961   -467.322152
PE30  14338.583192  10447.334457 -23708.446445  -1091.929662
PE31 -14969.373941  -9843.306357  23566.474771   -511.111653
PE33    -26.815413 -29586.244897    844.369918   -455.323086
PE34    198.048018  29586.399348   -658.706952    -20.503472
PE36 -11237.169785  20577.099644 -18062.311035   -477.913371
PG01  13084.244685 -13451.348085  18338.677264    235.412547
PG02 -10848.137932  17487.433303 -16275.965055   -632.111711
PG03  23299.220889 -12586.289880  -1169.543292   -375.169171
PG04  16385.200837  -5631.685621 -20158.728457    -65.293212
PG05 -23406.363063   3213.964755 -12420.541130   -108.734092
PG06  -6354.392779 -22806.102696 -11884.054653    543.496808
PG07   6423.356334 -24442.310359  -6873.777726    271.893157
PG08  23029.982010   3602.667773  13030.134041    -99.488098
PG09   5435.752069 -14612.365425 -21579.455345   -250.665007
PG10   1156.638547  15692.769047  21510.889280    -16.845909
PG11 -12528.268031 -12334.619095 -19910.002611    -60.461466
PG12 -24335.118916  10495.942436   -448.187643   -317.990614
PG13 -22272.364674 -12142.099395   8013.463187    444.922812
PG14   1845.151759 -16884.406468  20397.652379    -65.191716
PG15 -23299.225692   -808.741638  12526.843963     -2.630308
PG16  22030.722982   2574.601027 -15239.867033   -525.847129
PG17  -7215.497800 -19599.782700  16798.041602    687.236731
PG18  -5263.451990  25501.790555  -4830.939389    -65.741319
PG19 -16892.854085 -19558.514683   6475.559606    252.813660
PG20 -16256.574898  -6019.319390 -20040.266094    462.457129
PG21  15236.210096  -3795.669466  21947.079795    153.413629
PG22  18515.477698  18683.776359   4737.787610    388.274296
PG23 -10687.802889  18197.331658  16036.644885      0.408132
PG24 -14405.183348   9386.469882  19796.069947      7.880838
PG25 -18356.421474  16785.516144  -9198.984312    403.630754
PG26  13088.616261  10189.295411 -20899.019784    238.753100
PG27  23315.576477  12785.414378   2979.082432    148.693819
PG29  -8557.812907  12145.145086 -22056.432492   -575.160241
PG30  -1586.727088 -25985.528067   4604.849104   -535.091944
PG31   7737.721457  21484.390291 -13327.443043   -203.791946
PG32  11330.636957  19397.523739  14480.827735   -335.620635
PJ02 -36133.372926  20576.748856  -2511.533818     -0.361673
PJ03 -18522.101599  26826.637781 -22148.895089     -7.059236
PJ04 -28275.963335  29312.099058  17313.803558    115.709387
PR01 -20034.016312   4685.214744  15079.559579     19.846571
PR02  -1900.413315  10685.765962  23122.079315    -23.374189
PR03  16300.015685  10495.706372  16654.596982     69.374308
PR04  25077.430703   4587.697460   1143.884984    169.261486
PR05  20279.695726  -3763.993796 -15021.809818    104.827374
PR07 -16889.526211 -10307.302605 -16030.145888     46.414671
PR08 -25101.013384  -4336.741837   -858.587589    -68.618409
PR09   9345.193946 -21072.635144  10855.339661     93.957916
PR11 -14344.386382   2235.939841  20984.049369     13.571166
PR12 -17700.837431  17038.580030   6839.036353     23.747888
PR13 -10709.856136  21160.689885  -9401.269979    -30.102319
PR14   3648.384830  12543.423134 -21904.152082     24.113859
PR15  14943.253425  -3009.816249 -20438.124354     92.237573
PR17  11067.444153  22361.127063   5222.965889    588.448373
PR18  13130.959015  10681.679755  19124.387199     57.659579
PR19   9176.753158  -5099.404439  23254.181884   -215.194413
PR20  -1358.271678 -21939.434348  12922.121875    -84.317602
PR21 -11429.730666 -21774.493639  -6822.002184   -358.836556
PR22 -12982.853776 -10257.477957 -19378.020684     19.019051
PR24   2194.963108  22280.361543 -12186.232293    133.919291
PR25  -9881.509886 -23042.313602  -4750.602660     49.342945
EOF
